[
    {
        "Altitude(m)": 610405.3223522741,
        "Argument of Periapsis(deg)": 0.0,
        "Eccentricity": 0.0,
        "Inclination(deg)": 60.0,
        "Latitude(deg)": 52.11126970072571,
        "Longitude(deg)": 22.47729722253361,
        "Mean Anomaly(deg)": -245.45450000000002,
        "RAAN(deg)": 350.0,
        "Satellite Name": "Test1 1547",
        "Satellite Number": 1547,
        "Semi-Major Axis(m)": 6980739.136638005,
        "Time(s)": 0
    },
    {
        "Altitude(m)": 610321.8957891541,
        "Argument of Periapsis(deg)": 0.00010418945913296404,
        "Eccentricity": 0.0,
        "Inclination(deg)": 60.0,
        "Latitude(deg)": 51.745985943393066,
        "Longitude(deg)": 23.24619260326917,
        "Mean Anomaly(deg)": -244.83439385453818,
        "RAAN(deg)": 349.99957995086027,
        "Satellite Name": "Test1 1547",
        "Satellite Number": 1547,
        "Semi-Major Axis(m)": 6980739.136638005,
        "Time(s)": 10
    }
]